STARLINK-32881          
1 62997U 25031S   26068.27242200  .00032603  00000+0  11892-2 0  9991
2 62997  43.0013 145.4957 0001164 231.6064 128.4683 15.27575290 61030
TEVEL2-2                
1 63219U 25052K   26068.64848259  .00020339  00000+0  69428-3 0  9991
2 63219  97.3987 324.7700 0004693 105.7930 254.3828 15.30343745 54855
